{
  "norad_id": 50481,
  "name": "ONEWEB-0401",
  "history": [
    {
      "epoch": "2026-03-28T18:37:24.506976Z",
      "apogee_km": 1191.103154395365,
      "perigee_km": 1188.3817449452636,
      "latitude_deg": -2.4258932586200454e-05,
      "longitude_deg": -114.12568805886715,
      "height_km": 1192.5162010158476,
      "semi_major_axis_km": 7567.879449670314,
      "eccentricity": 0.0001798,
      "inclination_deg": 87.9247,
      "raan_deg": 351.418,
      "arg_perigee_deg": 84.7976,
      "mean_anomaly_deg": 275.3361,
      "mean_motion_rev_day": 13.18686177
    },
    {
      "epoch": "2026-03-29T03:43:43.131648Z",
      "apogee_km": 1191.1067749439044,
      "perigee_km": 1188.3732577655974,
      "latitude_deg": -3.6302797485096175e-05,
      "longitude_deg": 108.84757250925486,
      "height_km": 1192.5289220035354,
      "semi_major_axis_km": 7567.877016354751,
      "eccentricity": 0.0001806,
      "inclination_deg": 87.9246,
      "raan_deg": 351.3428,
      "arg_perigee_deg": 85.4588,
      "mean_anomaly_deg": 274.675,
      "mean_motion_rev_day": 13.18686813
    },
    {
      "epoch": "2026-03-30T03:24:07.603488Z",
      "apogee_km": 1191.1212772554236,
      "perigee_km": 1188.3605153988447,
      "latitude_deg": 6.144101877183123e-05,
      "longitude_deg": 112.5778759902321,
      "height_km": 1192.5264050465835,
      "semi_major_axis_km": 7567.877896327134,
      "eccentricity": 0.0001824,
      "inclination_deg": 87.9247,
      "raan_deg": 351.1473,
      "arg_perigee_deg": 85.3642,
      "mean_anomaly_deg": 274.7699,
      "mean_motion_rev_day": 13.18686583
    },
    {
      "epoch": "2026-03-30T05:13:23.315808Z",
      "apogee_km": 1191.119583789381,
      "perigee_km": 1188.3604871797843,
      "latitude_deg": -2.405310700881367e-05,
      "longitude_deg": 85.1726179016558,
      "height_km": 1192.5237359171595,
      "semi_major_axis_km": 7567.877035484583,
      "eccentricity": 0.00018229,
      "inclination_deg": 87.9247,
      "raan_deg": 351.1323,
      "arg_perigee_deg": 85.2854,
      "mean_anomaly_deg": 274.8486,
      "mean_motion_rev_day": 13.18686808
    },
    {
      "epoch": "2026-03-30T10:41:10.485600Z",
      "apogee_km": 1191.1189136403873,
      "perigee_km": 1188.3576986561866,
      "latitude_deg": -4.238397944029979e-05,
      "longitude_deg": 2.9565150474797837,
      "height_km": 1192.5236688747075,
      "semi_major_axis_km": 7567.875306148287,
      "eccentricity": 0.00018243,
      "inclination_deg": 87.9247,
      "raan_deg": 351.0871,
      "arg_perigee_deg": 85.3582,
      "mean_anomaly_deg": 274.7758,
      "mean_motion_rev_day": 13.1868726
    },
    {
      "epoch": "2026-03-30T23:26:00.662784Z",
      "apogee_km": 1191.118842865817,
      "perigee_km": 1188.3661023864443,
      "latitude_deg": 2.0577368124877478e-05,
      "longitude_deg": 171.118634495419,
      "height_km": 1192.5292831426846,
      "semi_major_axis_km": 7567.87947262613,
      "eccentricity": 0.00018187,
      "inclination_deg": 87.9247,
      "raan_deg": 350.9818,
      "arg_perigee_deg": 85.4044,
      "mean_anomaly_deg": 274.7296,
      "mean_motion_rev_day": 13.18686171
    },
    {
      "epoch": "2026-03-31T10:21:34.913376Z",
      "apogee_km": 1191.1201708290446,
      "perigee_km": 1188.3559287883518,
      "latitude_deg": 3.7206243362975235e-05,
      "longitude_deg": 6.687102630696825,
      "height_km": 1192.5216755501683,
      "semi_major_axis_km": 7567.875049808697,
      "eccentricity": 0.00018263,
      "inclination_deg": 87.9247,
      "raan_deg": 350.8917,
      "arg_perigee_deg": 85.2917,
      "mean_anomaly_deg": 274.8424,
      "mean_motion_rev_day": 13.18687327
    },
    {
      "epoch": "2026-04-01T06:23:27.933792Z",
      "apogee_km": 1191.1250708898133,
      "perigee_km": 1188.353714554797,
      "latitude_deg": -1.1272903109310176e-05,
      "longitude_deg": 65.22832346647046,
      "height_km": 1192.518543014887,
      "semi_major_axis_km": 7567.876392722304,
      "eccentricity": 0.0001831,
      "inclination_deg": 87.9246,
      "raan_deg": 350.7265,
      "arg_perigee_deg": 85.1182,
      "mean_anomaly_deg": 275.0159,
      "mean_motion_rev_day": 13.18686976
    },
    {
      "epoch": "2026-04-02T16:59:26.816928Z",
      "apogee_km": 1191.16642699752,
      "perigee_km": 1188.3193905758344,
      "latitude_deg": 5.29941181098956e-06,
      "longitude_deg": -95.47337970387758,
      "height_km": 1192.5288799784375,
      "semi_major_axis_km": 7567.879908786677,
      "eccentricity": 0.0001881,
      "inclination_deg": 87.9241,
      "raan_deg": 350.4411,
      "arg_perigee_deg": 85.5276,
      "mean_anomaly_deg": 274.6071,
      "mean_motion_rev_day": 13.18686057
    },
    {
      "epoch": "2026-04-02T22:27:13.847616Z",
      "apogee_km": 1191.1862782262406,
      "perigee_km": 1188.2861178592866,
      "latitude_deg": -1.2803265798742853e-05,
      "longitude_deg": -177.68870146726826,
      "height_km": 1192.5350469314722,
      "semi_major_axis_km": 7567.873198042764,
      "eccentricity": 0.00019161,
      "inclination_deg": 87.9241,
      "raan_deg": 350.3961,
      "arg_perigee_deg": 86.1221,
      "mean_anomaly_deg": 274.013,
      "mean_motion_rev_day": 13.18687811
    },
    {
      "epoch": "2026-04-03T18:29:06.795456Z",
      "apogee_km": 1191.1762733690257,
      "perigee_km": 1188.2974541512513,
      "latitude_deg": -5.479690375484796e-05,
      "longitude_deg": -119.14777830947813,
      "height_km": 1192.5393570671633,
      "semi_major_axis_km": 7567.873863760138,
      "eccentricity": 0.0001902,
      "inclination_deg": 87.9239,
      "raan_deg": 350.2303,
      "arg_perigee_deg": 86.2375,
      "mean_anomaly_deg": 273.8974,
      "mean_motion_rev_day": 13.18687637
    },
    {
      "epoch": "2026-04-04T10:52:28.365312Z",
      "apogee_km": 1191.1733538571962,
      "perigee_km": 1188.3027075005602,
      "latitude_deg": -7.210712407215498e-05,
      "longitude_deg": -5.796139441031967,
      "height_km": 1192.5220479339862,
      "semi_major_axis_km": 7567.875030678878,
      "eccentricity": 0.00018966,
      "inclination_deg": 87.9237,
      "raan_deg": 350.0949,
      "arg_perigee_deg": 85.4869,
      "mean_anomaly_deg": 274.6479,
      "mean_motion_rev_day": 13.18687332
    },
    {
      "epoch": "2026-04-05T10:32:52.773216Z",
      "apogee_km": 1191.145609922125,
      "perigee_km": 1188.329755110255,
      "latitude_deg": 5.7792412570100254e-05,
      "longitude_deg": -2.0657695691503486,
      "height_km": 1192.5116659173327,
      "semi_major_axis_km": 7567.87468251619,
      "eccentricity": 0.00018604,
      "inclination_deg": 87.9237,
      "raan_deg": 349.8992,
      "arg_perigee_deg": 84.9873,
      "mean_anomaly_deg": 275.1472,
      "mean_motion_rev_day": 13.18687423
    },
    {
      "epoch": "2026-04-05T17:49:56.336160Z",
      "apogee_km": 1191.7629012653579,
      "perigee_km": 1187.7398118150213,
      "latitude_deg": 2.1817165021160515e-05,
      "longitude_deg": -111.68997352767539,
      "height_km": 1192.4268516645457,
      "semi_major_axis_km": 7567.888356540189,
      "eccentricity": 0.0002658,
      "inclination_deg": 87.9239,
      "raan_deg": 349.839,
      "arg_perigee_deg": 83.7198,
      "mean_anomaly_deg": 276.4237,
      "mean_motion_rev_day": 13.18683849
    },
    {
      "epoch": "2026-04-06T04:45:33.287616Z",
      "apogee_km": 1191.2035733343373,
      "perigee_km": 1188.48924040563,
      "latitude_deg": 6.495554100795911e-05,
      "longitude_deg": 83.86950956821148,
      "height_km": 1192.5471121735259,
      "semi_major_axis_km": 7567.983406869984,
      "eccentricity": 0.00017933,
      "inclination_deg": 87.9229,
      "raan_deg": 349.7512,
      "arg_perigee_deg": 81.6804,
      "mean_anomaly_deg": 278.4532,
      "mean_motion_rev_day": 13.18659006
    },
    {
      "epoch": "2026-04-07T09:53:42.463392Z",
      "apogee_km": 1191.3173031359938,
      "perigee_km": 1188.1217000496308,
      "latitude_deg": -3.411603061063058e-05,
      "longitude_deg": 5.392502233837119,
      "height_km": 1192.4984637920552,
      "semi_major_axis_km": 7567.856501592812,
      "eccentricity": 0.00021113,
      "inclination_deg": 87.9243,
      "raan_deg": 349.509,
      "arg_perigee_deg": 85.7786,
      "mean_anomaly_deg": 274.3587,
      "mean_motion_rev_day": 13.18692175
    },
    {
      "epoch": "2026-04-08T05:55:37.031232Z",
      "apogee_km": 1191.6164028649082,
      "perigee_km": 1188.0406905034115,
      "latitude_deg": 4.2709389103625494e-05,
      "longitude_deg": 63.92745872327952,
      "height_km": 1192.5589095559708,
      "semi_major_axis_km": 7567.96554668416,
      "eccentricity": 0.00023624,
      "inclination_deg": 87.9237,
      "raan_deg": 349.344,
      "arg_perigee_deg": 84.6823,
      "mean_anomaly_deg": 275.4579,
      "mean_motion_rev_day": 13.18663674
    },
    {
      "epoch": "2026-04-09T18:20:50.608896Z",
      "apogee_km": 1191.156782859869,
      "perigee_km": 1188.3082367763745,
      "latitude_deg": -4.984224016329081e-05,
      "longitude_deg": -124.17685701385713,
      "height_km": 1192.4786013868775,
      "semi_major_axis_km": 7567.8695098181215,
      "eccentricity": 0.0001882,
      "inclination_deg": 87.9239,
      "raan_deg": 349.042,
      "arg_perigee_deg": 83.9184,
      "mean_anomaly_deg": 276.2162,
      "mean_motion_rev_day": 13.18688775
    },
    {
      "epoch": "2026-04-10T10:44:12.063840Z",
      "apogee_km": 1191.152633353693,
      "perigee_km": 1188.3146818570913,
      "latitude_deg": -5.993677976800188e-06,
      "longitude_deg": -10.824737132902575,
      "height_km": 1192.4454011967207,
      "semi_major_axis_km": 7567.870657605392,
      "eccentricity": 0.0001875,
      "inclination_deg": 87.9232,
      "raan_deg": 348.9066,
      "arg_perigee_deg": 82.4987,
      "mean_anomaly_deg": 277.6358,
      "mean_motion_rev_day": 13.18688475
    }
  ]
}